SL-4 R/B                
1 39679U 14021B   26039.53173632  .00010841  00000+0  24900-3 0  9993
2 39679  51.6065 119.4159 0099013 356.7201   3.3122 15.38245898651786
ALOS-2                  
1 39766U 14029A   26039.56907867  .00001100  00000+0  15406-3 0  9995
2 39766  97.9211 138.5855 0001477  95.4996 264.6385 14.79500780632565
YAOGAN-29               
1 41038U 15069A   26039.57869662  .00001101  00000+0  14229-3 0  9999
2 41038  98.0176  67.9261 0002926  84.0711 276.0836 14.82964371551569
ASTRO-H (HITOMI)        
1 41337U 16012A   26039.61291888  .00003618  00000+0  21268-3 0  9990
2 41337  30.9978 184.1533 0009830  40.4938 319.6430 15.09791131547839
HXMT (HUIYAN)           
1 42758U 17034A   26039.61438950  .00006055  00000+0  30841-3 0  9991
2 42758  43.0130 178.2707 0030878  49.1474 311.2043 15.17075102478121
CZ-2C R/B               
1 43521U 18054D   26039.57228186  .00333612  44444-4  76428-3 0  9994
2 43521  35.1282 143.6309 0012508  21.2393 338.8865 15.96136480424228
SAOCOM 1A               
1 43641U 18076A   26039.59591759  .00000251  00000+0  38084-4 0  9994
2 43641  97.8870 228.1810 0001367  84.2533 275.8836 14.82156966397054
H-2A R/B                
1 43682U 18084L   26039.57162905  .00018629  00000+0  46252-3 0  9996
2 43682  98.8761 250.7642 0026300 123.2086 237.1682 15.40063960401292
SAOCOM 1B               
1 46265U 20059A   26039.55964494  .00000864  00000+0  11507-3 0  9999
2 46265  97.8869 227.2436 0001381  84.9289 275.2082 14.82166680294431
CSS (TIANHE)            
1 48274U 21035A   26039.39486025  .00021492  00000+0  26814-3 0  9994
2 48274  41.4686  26.2335 0005046  28.7158 331.3958 15.59352670273033
COSMOS 2550             
1 48865U 21056A   26039.63037465  .00007439  00000+0  23164-3 0  9990
2 48865  67.1446 128.8316 0008409 269.6751  90.3439 15.33840088259001
CZ-2C R/B               
1 52794U 22058K   26039.36772077  .00031480  00000+0  49655-3 0  9990
2 52794  50.1884 108.8811 0042364  76.0462 284.5214 15.52173230205570
