CCSDS_OMM_VERS = 2.0
CREATION_DATE  = 
ORIGINATOR     = 

OBJECT_NAME    = SL-4 R/B
OBJECT_ID      = 2014-021B
CENTER_NAME    = EARTH
REF_FRAME      = TEME
TIME_SYSTEM    = UTC
MEAN_ELEMENT_THEORY = SGP/SGP4

EPOCH          = 2026-02-08T12:45:42.018048
MEAN_MOTION    = 15.38245898
ECCENTRICITY   = .00990133
INCLINATION    = 51.6065
RA_OF_ASC_NODE = 119.4159
ARG_OF_PERICENTER = 356.7201
MEAN_ANOMALY   = 3.3122

EPHEMERIS_TYPE = 0
CLASSIFICATION_TYPE = U
NORAD_CAT_ID   = 39679
ELEMENT_SET_NO = 999
REV_AT_EPOCH   = 65178
BSTAR          = .24899728E-3
MEAN_MOTION_DOT = .10841E-3
MEAN_MOTION_DDOT = 0

CCSDS_OMM_VERS = 2.0
CREATION_DATE  = 
ORIGINATOR     = 

OBJECT_NAME    = ALOS-2
OBJECT_ID      = 2014-029A
CENTER_NAME    = EARTH
REF_FRAME      = TEME
TIME_SYSTEM    = UTC
MEAN_ELEMENT_THEORY = SGP/SGP4

EPOCH          = 2026-02-08T13:39:28.397088
MEAN_MOTION    = 14.79500780
ECCENTRICITY   = .00014776
INCLINATION    = 97.9211
RA_OF_ASC_NODE = 138.5855
ARG_OF_PERICENTER = 95.4996
MEAN_ANOMALY   = 264.6385

EPHEMERIS_TYPE = 0
CLASSIFICATION_TYPE = U
NORAD_CAT_ID   = 39766
ELEMENT_SET_NO = 999
REV_AT_EPOCH   = 63256
BSTAR          = .1540581E-3
MEAN_MOTION_DOT = .11E-4
MEAN_MOTION_DDOT = 0

CCSDS_OMM_VERS = 2.0
CREATION_DATE  = 
ORIGINATOR     = 

OBJECT_NAME    = YAOGAN-29
OBJECT_ID      = 2015-069A
CENTER_NAME    = EARTH
REF_FRAME      = TEME
TIME_SYSTEM    = UTC
MEAN_ELEMENT_THEORY = SGP/SGP4

EPOCH          = 2026-02-08T13:53:19.387968
MEAN_MOTION    = 14.82964371
ECCENTRICITY   = .00029268
INCLINATION    = 98.0176
RA_OF_ASC_NODE = 67.9261
ARG_OF_PERICENTER = 84.0711
MEAN_ANOMALY   = 276.0836

EPHEMERIS_TYPE = 0
CLASSIFICATION_TYPE = U
NORAD_CAT_ID   = 41038
ELEMENT_SET_NO = 999
REV_AT_EPOCH   = 55156
BSTAR          = .14229446E-3
MEAN_MOTION_DOT = .1101E-4
MEAN_MOTION_DDOT = 0

CCSDS_OMM_VERS = 2.0
CREATION_DATE  = 
ORIGINATOR     = 

OBJECT_NAME    = ASTRO-H (HITOMI)
OBJECT_ID      = 2016-012A
CENTER_NAME    = EARTH
REF_FRAME      = TEME
TIME_SYSTEM    = UTC
MEAN_ELEMENT_THEORY = SGP/SGP4

EPOCH          = 2026-02-08T14:42:36.191232
MEAN_MOTION    = 15.09791131
ECCENTRICITY   = .00098307
INCLINATION    = 30.9978
RA_OF_ASC_NODE = 184.1533
ARG_OF_PERICENTER = 40.4938
MEAN_ANOMALY   = 319.6430

EPHEMERIS_TYPE = 0
CLASSIFICATION_TYPE = U
NORAD_CAT_ID   = 41337
ELEMENT_SET_NO = 999
REV_AT_EPOCH   = 54783
BSTAR          = .21267879E-3
MEAN_MOTION_DOT = .3618E-4
MEAN_MOTION_DDOT = 0

CCSDS_OMM_VERS = 2.0
CREATION_DATE  = 
ORIGINATOR     = 

OBJECT_NAME    = HXMT (HUIYAN)
OBJECT_ID      = 2017-034A
CENTER_NAME    = EARTH
REF_FRAME      = TEME
TIME_SYSTEM    = UTC
MEAN_ELEMENT_THEORY = SGP/SGP4

EPOCH          = 2026-02-08T14:44:43.252800
MEAN_MOTION    = 15.17075102
ECCENTRICITY   = .00308789
INCLINATION    = 43.0130
RA_OF_ASC_NODE = 178.2707
ARG_OF_PERICENTER = 49.1474
MEAN_ANOMALY   = 311.2043

EPHEMERIS_TYPE = 0
CLASSIFICATION_TYPE = U
NORAD_CAT_ID   = 42758
ELEMENT_SET_NO = 999
REV_AT_EPOCH   = 47812
BSTAR          = .30841413E-3
MEAN_MOTION_DOT = .6055E-4
MEAN_MOTION_DDOT = 0

CCSDS_OMM_VERS = 2.0
CREATION_DATE  = 
ORIGINATOR     = 

OBJECT_NAME    = CZ-2C R/B
OBJECT_ID      = 2018-054D
CENTER_NAME    = EARTH
REF_FRAME      = TEME
TIME_SYSTEM    = UTC
MEAN_ELEMENT_THEORY = SGP/SGP4

EPOCH          = 2026-02-08T13:44:05.152704
MEAN_MOTION    = 15.96136480
ECCENTRICITY   = .00125083
INCLINATION    = 35.1282
RA_OF_ASC_NODE = 143.6309
ARG_OF_PERICENTER = 21.2393
MEAN_ANOMALY   = 338.8865

EPHEMERIS_TYPE = 0
CLASSIFICATION_TYPE = U
NORAD_CAT_ID   = 43521
ELEMENT_SET_NO = 999
REV_AT_EPOCH   = 42422
BSTAR          = .76427705E-3
MEAN_MOTION_DOT = .333612E-2
MEAN_MOTION_DDOT = .44443554E-4

CCSDS_OMM_VERS = 2.0
CREATION_DATE  = 
ORIGINATOR     = 

OBJECT_NAME    = SAOCOM 1A
OBJECT_ID      = 2018-076A
CENTER_NAME    = EARTH
REF_FRAME      = TEME
TIME_SYSTEM    = UTC
MEAN_ELEMENT_THEORY = SGP/SGP4

EPOCH          = 2026-02-08T14:18:07.279776
MEAN_MOTION    = 14.82156966
ECCENTRICITY   = .00013677
INCLINATION    = 97.8870
RA_OF_ASC_NODE = 228.1810
ARG_OF_PERICENTER = 84.2533
MEAN_ANOMALY   = 275.8836

EPHEMERIS_TYPE = 0
CLASSIFICATION_TYPE = U
NORAD_CAT_ID   = 43641
ELEMENT_SET_NO = 999
REV_AT_EPOCH   = 39705
BSTAR          = .38084331E-4
MEAN_MOTION_DOT = .251E-5
MEAN_MOTION_DDOT = 0

CCSDS_OMM_VERS = 2.0
CREATION_DATE  = 
ORIGINATOR     = 

OBJECT_NAME    = H-2A R/B
OBJECT_ID      = 2018-084L
CENTER_NAME    = EARTH
REF_FRAME      = TEME
TIME_SYSTEM    = UTC
MEAN_ELEMENT_THEORY = SGP/SGP4

EPOCH          = 2026-02-08T13:43:08.749920
MEAN_MOTION    = 15.40063960
ECCENTRICITY   = .00263002
INCLINATION    = 98.8761
RA_OF_ASC_NODE = 250.7642
ARG_OF_PERICENTER = 123.2086
MEAN_ANOMALY   = 237.1682

EPHEMERIS_TYPE = 0
CLASSIFICATION_TYPE = U
NORAD_CAT_ID   = 43682
ELEMENT_SET_NO = 999
REV_AT_EPOCH   = 40129
BSTAR          = .46251518E-3
MEAN_MOTION_DOT = .18629E-3
MEAN_MOTION_DDOT = 0

CCSDS_OMM_VERS = 2.0
CREATION_DATE  = 
ORIGINATOR     = 

OBJECT_NAME    = SAOCOM 1B
OBJECT_ID      = 2020-059A
CENTER_NAME    = EARTH
REF_FRAME      = TEME
TIME_SYSTEM    = UTC
MEAN_ELEMENT_THEORY = SGP/SGP4

EPOCH          = 2026-02-08T13:25:53.322816
MEAN_MOTION    = 14.82166680
ECCENTRICITY   = .0001381
INCLINATION    = 97.8869
RA_OF_ASC_NODE = 227.2436
ARG_OF_PERICENTER = 84.9289
MEAN_ANOMALY   = 275.2082

EPHEMERIS_TYPE = 0
CLASSIFICATION_TYPE = U
NORAD_CAT_ID   = 46265
ELEMENT_SET_NO = 999
REV_AT_EPOCH   = 29443
BSTAR          = .1150692E-3
MEAN_MOTION_DOT = .864E-5
MEAN_MOTION_DDOT = 0

CCSDS_OMM_VERS = 2.0
CREATION_DATE  = 
ORIGINATOR     = 

OBJECT_NAME    = CSS (TIANHE)
OBJECT_ID      = 2021-035A
CENTER_NAME    = EARTH
REF_FRAME      = TEME
TIME_SYSTEM    = UTC
MEAN_ELEMENT_THEORY = SGP/SGP4

EPOCH          = 2026-02-08T09:28:35.925600
MEAN_MOTION    = 15.59352670
ECCENTRICITY   = .00050468
INCLINATION    = 41.4686
RA_OF_ASC_NODE = 26.2335
ARG_OF_PERICENTER = 28.7158
MEAN_ANOMALY   = 331.3958

EPHEMERIS_TYPE = 0
CLASSIFICATION_TYPE = U
NORAD_CAT_ID   = 48274
ELEMENT_SET_NO = 999
REV_AT_EPOCH   = 27303
BSTAR          = .26814317E-3
MEAN_MOTION_DOT = .21492E-3
MEAN_MOTION_DDOT = 0

CCSDS_OMM_VERS = 2.0
CREATION_DATE  = 
ORIGINATOR     = 

OBJECT_NAME    = COSMOS 2550
OBJECT_ID      = 2021-056A
CENTER_NAME    = EARTH
REF_FRAME      = TEME
TIME_SYSTEM    = UTC
MEAN_ELEMENT_THEORY = SGP/SGP4

EPOCH          = 2026-02-08T15:07:44.369760
MEAN_MOTION    = 15.33840088
ECCENTRICITY   = .00084097
INCLINATION    = 67.1446
RA_OF_ASC_NODE = 128.8316
ARG_OF_PERICENTER = 269.6751
MEAN_ANOMALY   = 90.3439

EPHEMERIS_TYPE = 0
CLASSIFICATION_TYPE = U
NORAD_CAT_ID   = 48865
ELEMENT_SET_NO = 999
REV_AT_EPOCH   = 25900
BSTAR          = .23164185E-3
MEAN_MOTION_DOT = .7439E-4
MEAN_MOTION_DDOT = 0

CCSDS_OMM_VERS = 2.0
CREATION_DATE  = 
ORIGINATOR     = 

OBJECT_NAME    = CZ-2C R/B
OBJECT_ID      = 2022-058K
CENTER_NAME    = EARTH
REF_FRAME      = TEME
TIME_SYSTEM    = UTC
MEAN_ELEMENT_THEORY = SGP/SGP4

EPOCH          = 2026-02-08T08:49:31.074528
MEAN_MOTION    = 15.52173230
ECCENTRICITY   = .00423646
INCLINATION    = 50.1884
RA_OF_ASC_NODE = 108.8811
ARG_OF_PERICENTER = 76.0462
MEAN_ANOMALY   = 284.5214

EPHEMERIS_TYPE = 0
CLASSIFICATION_TYPE = U
NORAD_CAT_ID   = 52794
ELEMENT_SET_NO = 999
REV_AT_EPOCH   = 20557
BSTAR          = .49654932E-3
MEAN_MOTION_DOT = .3148E-3
MEAN_MOTION_DDOT = 0

